start=new Date('2023-04-24T00:00:00.000Z').valueOf();
sats=[{"NORAD_CAT_ID":"45589","ECCENTRICITY":"0.00013140","CENTER_NAME":"EARTH","BSTAR":"0.00053188000000","CLASSIFICATION_TYPE":"U","GP_ID":"230627209","ARG_OF_PERICENTER":"101.0685","MEAN_MOTION_DOT":"0.00007653","SEMIMAJOR_AXIS":"6925.296","RA_OF_ASC_NODE":"116.2338","OBJECT_TYPE":"PAYLOAD","APOAPSIS":"548.071","OBJECT_ID":"2020-025BL","DECAY_DATE":null,"INCLINATION":"53.0520","TLE_LINE1":"1 45589U 20025BL  23113.35619879  .00007653  00000-0  53188-3 0  9997","SITE":"AFETR","MEAN_ANOMALY":"259.0451","PERIAPSIS":"546.251","MEAN_MOTION_DDOT":"0.0000000000000","EPHEMERIS_TYPE":"0","FILE":"3892688","OBJECT_NAME":"STARLINK-1364","PERIOD":"95.591","MEAN_MOTION":"15.06417028","MEAN_ELEMENT_THEORY":"SGP4","REV_AT_EPOCH":"16704","TIME_SYSTEM":"UTC","REF_FRAME":"TEME","TLE_LINE2":"2 45589  53.0520 116.2338 0001314 101.0685 259.0451 15.06417028167040","EPOCH":"2023-04-23T08:32:55.575456","ELEMENT_SET_NO":"999","RCS_SIZE":"LARGE","LAUNCH_DATE":"2020-04-22","COUNTRY_CODE":"US"},{"SEMIMAJOR_AXIS":"6925.230","RA_OF_ASC_NODE":"145.2755","OBJECT_TYPE":"PAYLOAD","APOAPSIS":"548.067","DECAY_DATE":null,"OBJECT_ID":"2020-025BM","CENTER_NAME":"EARTH","ECCENTRICITY":"0.00014040","NORAD_CAT_ID":"45590","BSTAR":"0.00101050000000","GP_ID":"230656652","CLASSIFICATION_TYPE":"U","ARG_OF_PERICENTER":"81.6906","MEAN_MOTION_DOT":"0.00014817","PERIOD":"95.590","MEAN_MOTION":"15.06438642","MEAN_ANOMALY":"278.4242","SITE":"AFETR","TLE_LINE1":"1 45590U 20025BM  23113.57089549  .00014817  00000-0  10105-2 0  9999","INCLINATION":"53.0522","PERIAPSIS":"546.123","MEAN_MOTION_DDOT":"0.0000000000000","FILE":"3892831","EPHEMERIS_TYPE":"0","OBJECT_NAME":"STARLINK-1365","TIME_SYSTEM":"UTC","REV_AT_EPOCH":"16667","MEAN_ELEMENT_THEORY":"SGP4","RCS_SIZE":"LARGE","COUNTRY_CODE":"US","LAUNCH_DATE":"2020-04-22","REF_FRAME":"TEME","ELEMENT_SET_NO":"999","EPOCH":"2023-04-23T13:42:05.370336","TLE_LINE2":"2 45590  53.0522 145.2755 0001404  81.6906 278.4242 15.06438642166674"},{"MEAN_ELEMENT_THEORY":"SGP4","TIME_SYSTEM":"UTC","REV_AT_EPOCH":"16028","REF_FRAME":"TEME","ELEMENT_SET_NO":"999","TLE_LINE2":"2 45658  53.0524 105.9818 0001478  94.1870 265.9288 15.06422413160285","EPOCH":"2023-04-23T09:53:51.642528","RCS_SIZE":"LARGE","LAUNCH_DATE":"2020-06-04","COUNTRY_CODE":"US","ECCENTRICITY":"0.00014780","CENTER_NAME":"EARTH","NORAD_CAT_ID":"45658","BSTAR":"0.00072262000000","GP_ID":"230628214","CLASSIFICATION_TYPE":"U","ARG_OF_PERICENTER":"94.1870","MEAN_MOTION_DOT":"0.00010505","SEMIMAJOR_AXIS":"6925.280","RA_OF_ASC_NODE":"105.9818","OBJECT_TYPE":"PAYLOAD","APOAPSIS":"548.168","OBJECT_ID":"2020-035B","DECAY_DATE":null,"MEAN_ANOMALY":"265.9288","TLE_LINE1":"1 45658U 20035B   23113.41240327  .00010505  00000-0  72262-3 0  9994","INCLINATION":"53.0524","SITE":"AFETR","PERIAPSIS":"546.121","MEAN_MOTION_DDOT":"0.0000000000000","FILE":"3892688","OBJECT_NAME":"STARLINK-1441","EPHEMERIS_TYPE":"0","PERIOD":"95.591","MEAN_MOTION":"15.06422413"},{"RCS_SIZE":"LARGE","COUNTRY_CODE":"US","LAUNCH_DATE":"2020-06-04","REF_FRAME":"TEME","EPOCH":"2023-04-23T08:22:16.064256","TLE_LINE2":"2 45659  53.0535 106.2707 0001177 104.1549 255.9570 15.06414989160260","ELEMENT_SET_NO":"999","REV_AT_EPOCH":"16026","TIME_SYSTEM":"UTC","MEAN_ELEMENT_THEORY":"SGP4","PERIOD":"95.591","MEAN_MOTION":"15.06414989","TLE_LINE1":"1 45659U 20035C   23113.34879704  .00008662  00000-0  59943-3 0  9996","INCLINATION":"53.0535","SITE":"AFETR","MEAN_ANOMALY":"255.9570","PERIAPSIS":"546.353","MEAN_MOTION_DDOT":"0.0000000000000","FILE":"3892688","OBJECT_NAME":"STARLINK-1442","EPHEMERIS_TYPE":"0","SEMIMAJOR_AXIS":"6925.303","RA_OF_ASC_NODE":"106.2707","APOAPSIS":"547.983","OBJECT_TYPE":"PAYLOAD","OBJECT_ID":"2020-035C","DECAY_DATE":null,"NORAD_CAT_ID":"45659","ECCENTRICITY":"0.00011770","CENTER_NAME":"EARTH","BSTAR":"0.00059943000000","CLASSIFICATION_TYPE":"U","GP_ID":"230626964","MEAN_MOTION_DOT":"0.00008662","ARG_OF_PERICENTER":"104.1549"},{"BSTAR":"0.00073973000000","NORAD_CAT_ID":"45660","ECCENTRICITY":"0.00012160","CENTER_NAME":"EARTH","ARG_OF_PERICENTER":"103.2766","MEAN_MOTION_DOT":"0.00010759","CLASSIFICATION_TYPE":"U","GP_ID":"230627214","RA_OF_ASC_NODE":"106.2295","SEMIMAJOR_AXIS":"6925.291","DECAY_DATE":null,"OBJECT_ID":"2020-035D","OBJECT_TYPE":"PAYLOAD","APOAPSIS":"547.998","PERIAPSIS":"546.313","TLE_LINE1":"1 45660U 20035D   23113.35711593  .00010759  00000-0  73973-3 0  9999","SITE":"AFETR","INCLINATION":"53.0523","MEAN_ANOMALY":"256.8359","FILE":"3892688","EPHEMERIS_TYPE":"0","OBJECT_NAME":"STARLINK-1443","MEAN_MOTION_DDOT":"0.0000000000000","MEAN_MOTION":"15.06418931","PERIOD":"95.591","MEAN_ELEMENT_THEORY":"SGP4","REV_AT_EPOCH":"16027","TIME_SYSTEM":"UTC","REF_FRAME":"TEME","EPOCH":"2023-04-23T08:34:14.816352","TLE_LINE2":"2 45660  53.0523 106.2295 0001216 103.2766 256.8359 15.06418931160273","ELEMENT_SET_NO":"999","RCS_SIZE":"LARGE","LAUNCH_DATE":"2020-06-04","COUNTRY_CODE":"US"},{"APOAPSIS":"548.125","OBJECT_TYPE":"PAYLOAD","OBJECT_ID":"2020-035E","DECAY_DATE":null,"SEMIMAJOR_AXIS":"6925.351","RA_OF_ASC_NODE":"104.6575","GP_ID":"230656657","CLASSIFICATION_TYPE":"U","ARG_OF_PERICENTER":"80.7513","MEAN_MOTION_DOT":"0.00009431","CENTER_NAME":"EARTH","ECCENTRICITY":"0.00013130","NORAD_CAT_ID":"45661","BSTAR":"0.00065118000000","PERIOD":"95.592","MEAN_MOTION":"15.06399299","MEAN_MOTION_DDOT":"0.0000000000000","OBJECT_NAME":"STARLINK-1444","FILE":"3892831","EPHEMERIS_TYPE":"0","MEAN_ANOMALY":"279.3624","INCLINATION":"53.0523","TLE_LINE1":"1 45661U 20035E   23113.70727942  .00009431  00000-0  65118-3 0  9991","SITE":"AFETR","PERIAPSIS":"546.306","REV_AT_EPOCH":"16032","TIME_SYSTEM":"UTC","MEAN_ELEMENT_THEORY":"SGP4","LAUNCH_DATE":"2020-06-04","COUNTRY_CODE":"US","RCS_SIZE":"LARGE","ELEMENT_SET_NO":"999","EPOCH":"2023-04-23T16:58:28.941888","TLE_LINE2":"2 45661  53.0523 104.6575 0001313  80.7513 279.3624 15.06399299160320","REF_FRAME":"TEME"},{"OBJECT_ID":"2020-035F","DECAY_DATE":null,"OBJECT_TYPE":"PAYLOAD","APOAPSIS":"547.944","RA_OF_ASC_NODE":"105.7839","SEMIMAJOR_AXIS":"6925.285","MEAN_MOTION_DOT":"0.00010557","ARG_OF_PERICENTER":"86.9402","CLASSIFICATION_TYPE":"U","GP_ID":"230627715","BSTAR":"0.00072616000000","NORAD_CAT_ID":"45662","CENTER_NAME":"EARTH","ECCENTRICITY":"0.00011470","MEAN_MOTION":"15.06420839","PERIOD":"95.591","EPHEMERIS_TYPE":"0","FILE":"3892688","OBJECT_NAME":"STARLINK-1445","MEAN_MOTION_DDOT":"0.0000000000000","PERIAPSIS":"546.355","TLE_LINE1":"1 45662U 20035F   23113.45663888  .00010557  00000-0  72616-3 0  9994","INCLINATION":"53.0522","SITE":"AFETR","MEAN_ANOMALY":"273.1718","TIME_SYSTEM":"UTC","REV_AT_EPOCH":"16028","MEAN_ELEMENT_THEORY":"SGP4","LAUNCH_DATE":"2020-06-04","COUNTRY_CODE":"US","RCS_SIZE":"LARGE","TLE_LINE2":"2 45662  53.0522 105.7839 0001147  86.9402 273.1718 15.06420839160281","EPOCH":"2023-04-23T10:57:33.599232","ELEMENT_SET_NO":"999","REF_FRAME":"TEME"},{"BSTAR":"0.00091814000000","NORAD_CAT_ID":"45663","ECCENTRICITY":"0.00013970","CENTER_NAME":"EARTH","MEAN_MOTION_DOT":"0.00013423","ARG_OF_PERICENTER":"94.4988","CLASSIFICATION_TYPE":"U","GP_ID":"230636774","RA_OF_ASC_NODE":"106.0672","SEMIMAJOR_AXIS":"6925.328","DECAY_DATE":null,"OBJECT_ID":"2020-035G","APOAPSIS":"548.160","OBJECT_TYPE":"PAYLOAD","PERIAPSIS":"546.226","TLE_LINE1":"1 45663U 20035G   23113.39398650  .00013423  00000-0  91814-3 0  9996","SITE":"AFETR","INCLINATION":"53.0540","MEAN_ANOMALY":"265.6161","OBJECT_NAME":"STARLINK-1446","FILE":"3892779","EPHEMERIS_TYPE":"0","MEAN_MOTION_DDOT":"0.0000000000000","MEAN_MOTION":"15.06406700","PERIOD":"95.592","MEAN_ELEMENT_THEORY":"SGP4","REV_AT_EPOCH":"15986","TIME_SYSTEM":"UTC","REF_FRAME":"TEME","EPOCH":"2023-04-23T09:27:20.433600","TLE_LINE2":"2 45663  53.0540 106.0672 0001397  94.4988 265.6161 15.06406700159862","ELEMENT_SET_NO":"999","RCS_SIZE":"LARGE","COUNTRY_CODE":"US","LAUNCH_DATE":"2020-06-04"},{"RA_OF_ASC_NODE":"106.2136","SEMIMAJOR_AXIS":"6925.353","DECAY_DATE":null,"OBJECT_ID":"2020-035J","APOAPSIS":"548.178","OBJECT_TYPE":"PAYLOAD","BSTAR":"0.00045063000000","NORAD_CAT_ID":"45665","ECCENTRICITY":"0.00013870","CENTER_NAME":"EARTH","MEAN_MOTION_DOT":"0.00006437","ARG_OF_PERICENTER":"100.2060","CLASSIFICATION_TYPE":"U","GP_ID":"230626715","MEAN_MOTION":"15.06398604","PERIOD":"95.592","PERIAPSIS":"546.257","TLE_LINE1":"1 45665U 20035J   23113.36080218  .00006437  00000-0  45063-3 0  9995","SITE":"AFETR","INCLINATION":"53.0521","MEAN_ANOMALY":"259.9085","FILE":"3892688","EPHEMERIS_TYPE":"0","OBJECT_NAME":"STARLINK-1448","MEAN_MOTION_DDOT":"0.0000000000000","REV_AT_EPOCH":"16026","TIME_SYSTEM":"UTC","MEAN_ELEMENT_THEORY":"SGP4","RCS_SIZE":"LARGE","COUNTRY_CODE":"US","LAUNCH_DATE":"2020-06-04","REF_FRAME":"TEME","TLE_LINE2":"2 45665  53.0521 106.2136 0001387 100.2060 259.9085 15.06398604160266","EPOCH":"2023-04-23T08:39:33.308352","ELEMENT_SET_NO":"999"},{"MEAN_ELEMENT_THEORY":"SGP4","REV_AT_EPOCH":"16025","TIME_SYSTEM":"UTC","REF_FRAME":"TEME","EPOCH":"2023-04-23T07:09:19.288224","TLE_LINE2":"2 45666  53.0523 106.4681 0001082  88.7486 271.3627 15.06410933160259","ELEMENT_SET_NO":"999","RCS_SIZE":"LARGE","LAUNCH_DATE":"2020-06-04","COUNTRY_CODE":"US","BSTAR":"0.00026060000000","NORAD_CAT_ID":"45666","CENTER_NAME":"EARTH","ECCENTRICITY":"0.00010820","ARG_OF_PERICENTER":"88.7486","MEAN_MOTION_DOT":"0.00003603","CLASSIFICATION_TYPE":"U","GP_ID":"230656157","RA_OF_ASC_NODE":"106.4681","SEMIMAJOR_AXIS":"6925.315","OBJECT_ID":"2020-035K","DECAY_DATE":null,"APOAPSIS":"547.929","OBJECT_TYPE":"PAYLOAD","PERIAPSIS":"546.431","TLE_LINE1":"1 45666U 20035K   23113.29813991  .00003603  00000-0  26060-3 0  9998","INCLINATION":"53.0523","SITE":"AFETR","MEAN_ANOMALY":"271.3627","EPHEMERIS_TYPE":"0","FILE":"3892831","OBJECT_NAME":"STARLINK-1449","MEAN_MOTION_DDOT":"0.0000000000000","MEAN_MOTION":"15.06410933","PERIOD":"95.591"}];
